start=new Date('2021-12-03T00:00:00.000Z').valueOf();
sats=[{"TLE_LINE2":"2 48313  53.0530 246.7977 0002073  58.9845 301.1347 15.06397041 33304","RCS_SIZE":"LARGE","ARG_OF_PERICENTER":"58.9845","ELEMENT_SET_NO":"999","PERIAPSIS":"545.787","LAUNCH_DATE":"2021-04-29","MEAN_ELEMENT_THEORY":"SGP4","OBJECT_ID":"2021-036AP","MEAN_MOTION":"15.06397041","RA_OF_ASC_NODE":"246.7977","OBJECT_NAME":"STARLINK-2541","NORAD_CAT_ID":"48313","REF_FRAME":"TEME","EPHEMERIS_TYPE":"0","APOAPSIS":"548.658","CENTER_NAME":"EARTH","FILE":"3230859","MEAN_MOTION_DDOT":"0.0000000000000","INCLINATION":"53.0530","TIME_SYSTEM":"UTC","GP_ID":"190944065","TLE_LINE1":"1 48313U 21036AP  21336.45890803  .00001389  00000-0  11212-3 0  9994","BSTAR":"0.00011212000000","OBJECT_TYPE":"PAYLOAD","SITE":"AFETR","REV_AT_EPOCH":"3330","SEMIMAJOR_AXIS":"6925.358","EPOCH":"2021-12-02T11:00:49.653792","MEAN_MOTION_DOT":"0.00001389","CLASSIFICATION_TYPE":"U","ECCENTRICITY":"0.00020730","COUNTRY_CODE":"US","PERIOD":"95.592","DECAY_DATE":null,"MEAN_ANOMALY":"301.1347"},{"APOAPSIS":"548.631","EPHEMERIS_TYPE":"0","FILE":"3231154","CENTER_NAME":"EARTH","TIME_SYSTEM":"UTC","MEAN_MOTION_DDOT":"0.0000000000000","INCLINATION":"53.0542","ELEMENT_SET_NO":"999","ARG_OF_PERICENTER":"65.1254","PERIAPSIS":"545.711","TLE_LINE2":"2 48314  53.0542 245.3273 0002108  65.1254 294.9954 15.06413921 34002","RCS_SIZE":"LARGE","MEAN_ELEMENT_THEORY":"SGP4","LAUNCH_DATE":"2021-04-29","OBJECT_ID":"2021-036AQ","NORAD_CAT_ID":"48314","OBJECT_NAME":"STARLINK-2549","REF_FRAME":"TEME","RA_OF_ASC_NODE":"245.3273","MEAN_MOTION":"15.06413921","ECCENTRICITY":"0.00021080","CLASSIFICATION_TYPE":"U","DECAY_DATE":null,"COUNTRY_CODE":"US","PERIOD":"95.591","MEAN_ANOMALY":"294.9954","GP_ID":"190952947","TLE_LINE1":"1 48314U 21036AQ  21336.78694641 -.00001811  00000-0 -10262-3 0  9999","BSTAR":"-0.00010262000000","OBJECT_TYPE":"PAYLOAD","SITE":"AFETR","REV_AT_EPOCH":"3400","SEMIMAJOR_AXIS":"6925.306","EPOCH":"2021-12-02T18:53:12.169824","MEAN_MOTION_DOT":"-0.00001811"},{"CLASSIFICATION_TYPE":"U","ECCENTRICITY":"0.00023080","MEAN_ANOMALY":"293.8869","COUNTRY_CODE":"US","PERIOD":"95.592","DECAY_DATE":null,"BSTAR":"0.00004239100000","GP_ID":"190945568","TLE_LINE1":"1 48315U 21036AR  21336.45153555  .00000350  00000-0  42391-4 0  9992","REV_AT_EPOCH":"3330","SITE":"AFETR","SEMIMAJOR_AXIS":"6925.364","EPOCH":"2021-12-02T10:50:12.671520","MEAN_MOTION_DOT":"0.00000350","OBJECT_TYPE":"PAYLOAD","EPHEMERIS_TYPE":"0","APOAPSIS":"548.827","INCLINATION":"53.0555","MEAN_MOTION_DDOT":"0.0000000000000","TIME_SYSTEM":"UTC","CENTER_NAME":"EARTH","FILE":"3230859","MEAN_ELEMENT_THEORY":"SGP4","LAUNCH_DATE":"2021-04-29","TLE_LINE2":"2 48315  53.0555 246.8299 0002308  66.2362 293.8869 15.06395124 33304","RCS_SIZE":"LARGE","ARG_OF_PERICENTER":"66.2362","ELEMENT_SET_NO":"999","PERIAPSIS":"545.630","MEAN_MOTION":"15.06395124","RA_OF_ASC_NODE":"246.8299","OBJECT_NAME":"STARLINK-2506","NORAD_CAT_ID":"48315","REF_FRAME":"TEME","OBJECT_ID":"2021-036AR"},{"TIME_SYSTEM":"UTC","INCLINATION":"53.0552","MEAN_MOTION_DDOT":"0.0000000000000","FILE":"3230859","CENTER_NAME":"EARTH","APOAPSIS":"548.612","EPHEMERIS_TYPE":"0","REF_FRAME":"TEME","NORAD_CAT_ID":"48316","OBJECT_NAME":"STARLINK-2507","RA_OF_ASC_NODE":"246.8493","MEAN_MOTION":"15.06398917","OBJECT_ID":"2021-036AS","MEAN_ELEMENT_THEORY":"SGP4","LAUNCH_DATE":"2021-04-29","PERIAPSIS":"545.821","ELEMENT_SET_NO":"999","ARG_OF_PERICENTER":"67.2217","RCS_SIZE":"LARGE","TLE_LINE2":"2 48316  53.0552 246.8493 0002015  67.2217 292.8985 15.06398917 33304","MEAN_ANOMALY":"292.8985","DECAY_DATE":null,"PERIOD":"95.592","COUNTRY_CODE":"US","ECCENTRICITY":"0.00020150","CLASSIFICATION_TYPE":"U","MEAN_MOTION_DOT":"-0.00000039","SEMIMAJOR_AXIS":"6925.352","EPOCH":"2021-12-02T10:44:53.941920","SITE":"AFETR","REV_AT_EPOCH":"3330","OBJECT_TYPE":"PAYLOAD","BSTAR":"0.00001630200000","TLE_LINE1":"1 48316U 21036AS  21336.44784655 -.00000039  00000-0  16302-4 0  9991","GP_ID":"190944316"},{"CLASSIFICATION_TYPE":"U","ECCENTRICITY":"0.00021970","MEAN_ANOMALY":"297.0226","DECAY_DATE":null,"COUNTRY_CODE":"US","PERIOD":"95.593","BSTAR":"0.00005747000000","GP_ID":"190951630","TLE_LINE1":"1 48317U 21036AT  21336.77589730  .00000574  00000-0  57470-4 0  9999","SITE":"AFETR","REV_AT_EPOCH":"3400","SEMIMAJOR_AXIS":"6925.374","EPOCH":"2021-12-02T18:37:17.526720","MEAN_MOTION_DOT":"0.00000574","OBJECT_TYPE":"PAYLOAD","APOAPSIS":"548.761","EPHEMERIS_TYPE":"0","TIME_SYSTEM":"UTC","INCLINATION":"53.0551","MEAN_MOTION_DDOT":"0.0000000000000","FILE":"3231080","CENTER_NAME":"EARTH","LAUNCH_DATE":"2021-04-29","MEAN_ELEMENT_THEORY":"SGP4","ELEMENT_SET_NO":"999","ARG_OF_PERICENTER":"63.0987","PERIAPSIS":"545.718","TLE_LINE2":"2 48317  53.0551 245.3721 0002197  63.0987 297.0226 15.06391611 34008","RCS_SIZE":"LARGE","OBJECT_NAME":"STARLINK-2513","NORAD_CAT_ID":"48317","REF_FRAME":"TEME","MEAN_MOTION":"15.06391611","RA_OF_ASC_NODE":"245.3721","OBJECT_ID":"2021-036AT"},{"DECAY_DATE":null,"PERIOD":"95.593","COUNTRY_CODE":"US","MEAN_ANOMALY":"303.2532","ECCENTRICITY":"0.00020810","CLASSIFICATION_TYPE":"U","OBJECT_TYPE":"PAYLOAD","MEAN_MOTION_DOT":"0.00001285","SEMIMAJOR_AXIS":"6925.370","EPOCH":"2021-12-02T18:25:21.346752","REV_AT_EPOCH":"3385","SITE":"AFETR","TLE_LINE1":"1 48318U 21036AU  21336.76760818  .00001285  00000-0  10517-3 0  9997","GP_ID":"190948227","BSTAR":"0.00010517000000","FILE":"3230947","CENTER_NAME":"EARTH","TIME_SYSTEM":"UTC","INCLINATION":"53.0536","MEAN_MOTION_DDOT":"0.0000000000000","APOAPSIS":"548.676","EPHEMERIS_TYPE":"0","OBJECT_ID":"2021-036AU","REF_FRAME":"TEME","OBJECT_NAME":"STARLINK-2509","NORAD_CAT_ID":"48318","RA_OF_ASC_NODE":"255.3924","MEAN_MOTION":"15.06392925","PERIAPSIS":"545.794","ARG_OF_PERICENTER":"56.8657","ELEMENT_SET_NO":"999","RCS_SIZE":"LARGE","TLE_LINE2":"2 48318  53.0536 255.3924 0002081  56.8657 303.2532 15.06392925 33855","LAUNCH_DATE":"2021-04-29","MEAN_ELEMENT_THEORY":"SGP4"},{"COUNTRY_CODE":"US","PERIOD":"95.593","DECAY_DATE":null,"MEAN_ANOMALY":"301.7127","ECCENTRICITY":"0.00020560","CLASSIFICATION_TYPE":"U","OBJECT_TYPE":"PAYLOAD","REV_AT_EPOCH":"3385","SITE":"AFETR","SEMIMAJOR_AXIS":"6925.368","EPOCH":"2021-12-02T18:20:02.772672","MEAN_MOTION_DOT":"0.00001189","GP_ID":"190948229","TLE_LINE1":"1 48319U 21036AV  21336.76392098  .00001189  00000-0  98726-4 0  9991","BSTAR":"0.00009872600000","CENTER_NAME":"EARTH","FILE":"3230947","INCLINATION":"53.0533","MEAN_MOTION_DDOT":"0.0000000000000","TIME_SYSTEM":"UTC","EPHEMERIS_TYPE":"0","APOAPSIS":"548.657","OBJECT_ID":"2021-036AV","MEAN_MOTION":"15.06393698","RA_OF_ASC_NODE":"255.4149","OBJECT_NAME":"STARLINK-2512","NORAD_CAT_ID":"48319","REF_FRAME":"TEME","TLE_LINE2":"2 48319  53.0533 255.4149 0002056  58.4062 301.7127 15.06393698 33854","RCS_SIZE":"LARGE","ELEMENT_SET_NO":"999","ARG_OF_PERICENTER":"58.4062","PERIAPSIS":"545.809","MEAN_ELEMENT_THEORY":"SGP4","LAUNCH_DATE":"2021-04-29"},{"LAUNCH_DATE":"2021-04-29","MEAN_ELEMENT_THEORY":"SGP4","TLE_LINE2":"2 48320  53.0541 256.6137 0002188  57.7900 302.3301 15.06401141 33173","RCS_SIZE":"LARGE","ARG_OF_PERICENTER":"57.7900","ELEMENT_SET_NO":"999","PERIAPSIS":"545.695","MEAN_MOTION":"15.06401141","RA_OF_ASC_NODE":"256.6137","NORAD_CAT_ID":"48320","OBJECT_NAME":"STARLINK-2029","REF_FRAME":"TEME","OBJECT_ID":"2021-036AW","EPHEMERIS_TYPE":"0","APOAPSIS":"548.725","INCLINATION":"53.0541","MEAN_MOTION_DDOT":"0.0000000000000","TIME_SYSTEM":"UTC","CENTER_NAME":"EARTH","FILE":"3230859","BSTAR":"0.00015253000000","GP_ID":"190943816","TLE_LINE1":"1 48320U 21036AW  21336.49483342  .00001991  00000-0  15253-3 0  9990","REV_AT_EPOCH":"3317","SITE":"AFETR","EPOCH":"2021-12-02T11:52:33.607488","SEMIMAJOR_AXIS":"6925.345","MEAN_MOTION_DOT":"0.00001991","OBJECT_TYPE":"PAYLOAD","CLASSIFICATION_TYPE":"U","ECCENTRICITY":"0.00021880","MEAN_ANOMALY":"302.3301","COUNTRY_CODE":"US","PERIOD":"95.592","DECAY_DATE":null},{"MEAN_ANOMALY":"299.3080","PERIOD":"95.593","COUNTRY_CODE":"US","DECAY_DATE":null,"ECCENTRICITY":"0.00022080","CLASSIFICATION_TYPE":"U","EPOCH":"2021-12-02T11:47:16.471968","SEMIMAJOR_AXIS":"6925.389","MEAN_MOTION_DOT":"0.00000331","REV_AT_EPOCH":"3317","SITE":"AFETR","OBJECT_TYPE":"PAYLOAD","BSTAR":"0.00004111900000","TLE_LINE1":"1 48321U 21036AX  21336.49116287  .00000331  00000-0  41119-4 0  9990","GP_ID":"190944066","MEAN_MOTION_DDOT":"0.0000000000000","INCLINATION":"53.0552","TIME_SYSTEM":"UTC","CENTER_NAME":"EARTH","FILE":"3230859","EPHEMERIS_TYPE":"0","APOAPSIS":"548.783","MEAN_MOTION":"15.06386791","RA_OF_ASC_NODE":"256.6342","REF_FRAME":"TEME","NORAD_CAT_ID":"48321","OBJECT_NAME":"STARLINK-2457","OBJECT_ID":"2021-036AX","LAUNCH_DATE":"2021-04-29","MEAN_ELEMENT_THEORY":"SGP4","RCS_SIZE":"LARGE","TLE_LINE2":"2 48321  53.0552 256.6342 0002208  60.8129 299.3080 15.06386791 33177","PERIAPSIS":"545.725","ELEMENT_SET_NO":"999","ARG_OF_PERICENTER":"60.8129"},{"FILE":"3231025","CENTER_NAME":"EARTH","TIME_SYSTEM":"UTC","INCLINATION":"53.0547","MEAN_MOTION_DDOT":"0.0000000000000","APOAPSIS":"548.450","EPHEMERIS_TYPE":"0","OBJECT_ID":"2021-036AY","REF_FRAME":"TEME","OBJECT_NAME":"STARLINK-2477","NORAD_CAT_ID":"48322","MEAN_MOTION":"15.06421494","RA_OF_ASC_NODE":"255.4560","PERIAPSIS":"545.846","ELEMENT_SET_NO":"999","ARG_OF_PERICENTER":"59.8544","RCS_SIZE":"LARGE","TLE_LINE2":"2 48322  53.0547 255.4560 0001880  59.8544 300.2631 15.06421494 33809","LAUNCH_DATE":"2021-04-29","MEAN_ELEMENT_THEORY":"SGP4","DECAY_DATE":null,"PERIOD":"95.591","COUNTRY_CODE":"US","MEAN_ANOMALY":"300.2631","ECCENTRICITY":"0.00018800","CLASSIFICATION_TYPE":"U","OBJECT_TYPE":"PAYLOAD","SEMIMAJOR_AXIS":"6925.283","MEAN_MOTION_DOT":"-0.00005045","EPOCH":"2021-12-02T18:04:07.090176","REV_AT_EPOCH":"3380","SITE":"AFETR","TLE_LINE1":"1 48322U 21036AY  21336.75285984 -.00005045  00000-0 -31984-3 0  9998","GP_ID":"190950104","BSTAR":"-0.00031984000000"}];
